[{"OBJECT_NAME":"GNOMES-5","OBJECT_ID":"2024-149DL","EPOCH":"2026-03-09T22:53:01.372704","MEAN_MOTION":15.00280005,"ECCENTRICITY":0.00076217,"INCLINATION":97.6857,"RA_OF_ASC_NODE":148.0235,"ARG_OF_PERICENTER":89.6268,"MEAN_ANOMALY":270.5829,"EPHEMERIS_TYPE":0,"CLASSIFICATION_TYPE":"U","NORAD_CAT_ID":60574,"ELEMENT_SET_NO":999,"REV_AT_EPOCH":8527,"BSTAR":0.00047414566,"MEAN_MOTION_DOT":5.885e-5,"MEAN_MOTION_DDOT":0},{"OBJECT_NAME":"STARLINK-32912","OBJECT_ID":"2025-037M","EPOCH":"2026-03-09T22:33:46.780128","MEAN_MOTION":14.98375815,"ECCENTRICITY":0.00031393,"INCLINATION":70.0026,"RA_OF_ASC_NODE":353.661,"ARG_OF_PERICENTER":270.3794,"MEAN_ANOMALY":89.7005,"EPHEMERIS_TYPE":0,"CLASSIFICATION_TYPE":"U","NORAD_CAT_ID":63088,"ELEMENT_SET_NO":999,"REV_AT_EPOCH":5874,"BSTAR":0.0025884925,"MEAN_MOTION_DOT":0.00030966,"MEAN_MOTION_DDOT":0}]
